HST                     
1 20580U 90037B   26156.34226219  .00005266  00000+0  16530-3 0  9999
2 20580  28.4714 161.5212 0001846  24.4267 335.6416 15.30618516786752
POLAR                   
1 23802U 96013A   26156.48356777  .00000122  00000+0  00000+0 0  9994
2 23802  79.8408 227.1897 6458904 209.4848  89.1116  1.29846134144700
CXO                     
1 25867U 99040B   26158.79821798  .00000708  00000+0  00000+0 0  9996
2 25867  55.9928 116.9568 7854200 310.2595   0.2905  0.37800379 17286
XMM-NEWTON              
1 25989U 99066A   26157.37875651  .00000096  00000+0  00000+0 0  9999
2 25989  64.5482 283.1267 4678331  65.0797   0.1118  0.50125302 22956
TERRA                   
1 25994U 99068A   26156.93524367  .00000443  00000+0  99242-4 0  9990
2 25994  97.9461 206.9271 0000845 249.6338 234.0500 14.61094220407965
CLUSTER II-FM7 (SAMBA)  
1 26410U 00041A   26156.98399886  .00004453  00000+0  00000+0 0  9992
2 26410 149.8917  48.5803 9040965 265.6480   0.0292  0.44829937 20254
CLUSTER II-FM8 (TANGO)  
1 26464U 00045B   26154.93096890  .00009075  00000+0  00000+0 0  9992
2 26464 150.1347  49.2777 9042973 266.1813   3.2525  0.44411373 20255
ODIN                    
1 26702U 01007A   26156.07744653  .00138173  00000+0  10497-2 0  9996
2 26702  97.3851 196.2749 0006301 158.1180 202.0353 15.71871760387493
TIMED                   
1 26998U 01055B   26156.56734179  .00001549  00000+0  14420-3 0  9999
2 26998  74.0681 258.4138 0000451 356.0442   4.0739 14.95266842329089
CORIOLIS                
1 27640U 03001A   26156.85229741  .00000118  00000+0  76290-4 0  9998
2 27640  98.7127 163.9101 0012889 243.6919 116.2933 14.19941768212615
SORCE                   
1 27651U 03004A   26156.18478439  .00002922  00000+0  21993-3 0  9993
2 27651  39.9921 330.1529 0018265 322.3449  37.6066 15.03645274270091
MOST                    
1 27843U 03031D   26156.45502169  .00000074  00000+0  54100-4 0  9997
2 27843  98.7044 164.3446 0008736 288.7549  71.2680 14.21320032189047
SCISAT 1                
1 27858U 03036A   26156.47543454  .00000604  00000+0  81804-4 0  9992
2 27858  73.9290 194.6124 0008710 263.3396  96.6789 14.81435691229715
SWIFT                   
1 28485U 04047A   26151.76835454  .00063707  00000+0  56852-3 0  9990
2 28485  20.5544 311.3972 0003289  74.7681 285.3128 15.66645040184289
HINODE (SOLAR-B)        
1 29479U 06041A   26156.46663956  .00000852  00000+0  15490-3 0  9993
2 29479  98.0548 172.7920 0016615 329.6832  30.3411 14.68606216 53153
SDO                     
1 36395U 10005A   26156.44891128 -.00000065  00000+0  00000+0 0  9999
2 36395  34.6271  86.5214 0001383  49.1368 177.8508  1.00271250 59944
NEOSSAT                 
1 39089U 13009D   26156.50216705  .00000144  00000+0  64511-4 0  9997
2 39089  98.4175 336.8130 0009807 282.8165  77.1925 14.35822279695065
BRITE-AUSTRIA           
1 39091U 13009F   26156.43695210  .00000190  00000+0  79122-4 0  9999
2 39091  98.3993 336.1638 0008963 276.1708  83.8457 14.36537301695369
IRIS                    
1 39197U 13033A   26156.51480858  .00001171  00000+0  14014-3 0  9990
2 39197  97.9336 355.8285 0024457   0.7181 359.4065 14.85861117698640
HISAKI (SPRINT-A)       
1 39253U 13049A   26156.05001856  .00000142  00000+0  10229-3 0  9997
2 39253  29.7212 281.7184 0136929 278.4998  80.0077 13.55543351629773
